SL-14 R/B               
1 16792U 86046B   26014.78770847  .00000333  00000+0  35559-4 0  9999
2 16792  82.4835 131.1055 0024200  48.7528 311.5768 14.85527283118405
SL-14 R/B               
1 16882U 86055B   26015.06073030  .00000379  00000+0  40906-4 0  9993
2 16882  82.5206 177.0613 0019737 146.0423 309.1378 14.85571145111401
AJISAI (EGS)            
1 16908U 86061A   26015.17410588 -.00000070  00000+0  19540-3 0  9992
2 16908  50.0080 257.9104 0011299 149.8600  24.1365 12.44514932461330
COSMOS 1812             
1 17295U 87003A   26015.11728332  .00102594  00000+0  45449-3 0  9992
2 17295  82.4839 255.6687 0002819  49.8438 310.3078 15.84097988135926
SL-14 R/B               
1 17567U 87024B   26014.84070705  .00000361  00000+0  38333-4 0  9994
2 17567  82.5300 143.3609 0019717  80.1167 280.2274 14.86067420 80135
COSMOS 1833             
1 17589U 87027A   26015.13096571  .00000297  00000+0  18440-3 0  9997
2 17589  70.9191  78.5882 0024117 285.6914  74.1547 14.13044007  2753
SL-16 R/B               
1 17590U 87027B   26015.11855858 -.00000071  00000+0 -11366-4 0  9991
2 17590  71.0033  29.3809 0006464 224.1209 135.9400 14.17160396  7758
SL-14 R/B               
1 17912U 87038B   26014.94266139  .00000372  00000+0  40445-4 0  9991
2 17912  82.5024 347.4243 0018925 347.2208  12.8525 14.85300507 71252
COSMOS 1844             
1 17973U 87041A   26014.79832021 -.00000249  00000+0 -10426-3 0  9994
2 17973  70.8997 147.8464 0028289 104.4367 255.9897 14.14537953995962
SL-14 R/B               
1 18153U 87055B   26015.13087632  .00000301  00000+0  31959-4 0  9991
2 18153  82.4977  39.5130 0020451 186.3896 173.7063 14.85558430 61985
COSMOS 1867             
1 18187U 87060A   26015.20659144 -.00000059  00000+0  15352-4 0  9995
2 18187  65.0111  96.4831 0013850 274.3679  85.5823 14.31492627 12280
SL-14 R/B               
1 18749U 88001B   26015.12264969  .00000291  00000+0  30856-4 0  9996
2 18749  82.5114 245.7495 0019399  58.0309 302.2789 14.85461311 34073
