CCSDS_OMM_VERS = 2.0
CREATION_DATE  = 
ORIGINATOR     = 

OBJECT_NAME    = SL-14 R/B
OBJECT_ID      = 1986-046B
CENTER_NAME    = EARTH
REF_FRAME      = TEME
TIME_SYSTEM    = UTC
MEAN_ELEMENT_THEORY = SGP/SGP4

EPOCH          = 2026-01-14T18:54:18.011808
MEAN_MOTION    = 14.85527283
ECCENTRICITY   = .00242
INCLINATION    = 82.4835
RA_OF_ASC_NODE = 131.1055
ARG_OF_PERICENTER = 48.7528
MEAN_ANOMALY   = 311.5768

EPHEMERIS_TYPE = 0
CLASSIFICATION_TYPE = U
NORAD_CAT_ID   = 16792
ELEMENT_SET_NO = 999
REV_AT_EPOCH   = 11840
BSTAR          = .35559E-4
MEAN_MOTION_DOT = .333E-5
MEAN_MOTION_DDOT = 0

CCSDS_OMM_VERS = 2.0
CREATION_DATE  = 
ORIGINATOR     = 

OBJECT_NAME    = SL-14 R/B
OBJECT_ID      = 1986-055B
CENTER_NAME    = EARTH
REF_FRAME      = TEME
TIME_SYSTEM    = UTC
MEAN_ELEMENT_THEORY = SGP/SGP4

EPOCH          = 2026-01-15T01:27:27.097920
MEAN_MOTION    = 14.85571145
ECCENTRICITY   = .0019737
INCLINATION    = 82.5206
RA_OF_ASC_NODE = 177.0613
ARG_OF_PERICENTER = 146.0423
MEAN_ANOMALY   = 309.1378

EPHEMERIS_TYPE = 0
CLASSIFICATION_TYPE = U
NORAD_CAT_ID   = 16882
ELEMENT_SET_NO = 999
REV_AT_EPOCH   = 11140
BSTAR          = .40906E-4
MEAN_MOTION_DOT = .379E-5
MEAN_MOTION_DDOT = 0

CCSDS_OMM_VERS = 2.0
CREATION_DATE  = 
ORIGINATOR     = 

OBJECT_NAME    = AJISAI (EGS)
OBJECT_ID      = 1986-061A
CENTER_NAME    = EARTH
REF_FRAME      = TEME
TIME_SYSTEM    = UTC
MEAN_ELEMENT_THEORY = SGP/SGP4

EPOCH          = 2026-01-15T04:10:42.748032
MEAN_MOTION    = 12.44514932
ECCENTRICITY   = .0011299
INCLINATION    = 50.0080
RA_OF_ASC_NODE = 257.9104
ARG_OF_PERICENTER = 149.8600
MEAN_ANOMALY   = 24.1365

EPHEMERIS_TYPE = 0
CLASSIFICATION_TYPE = U
NORAD_CAT_ID   = 16908
ELEMENT_SET_NO = 999
REV_AT_EPOCH   = 46133
BSTAR          = .1954E-3
MEAN_MOTION_DOT = -.7E-6
MEAN_MOTION_DDOT = 0

CCSDS_OMM_VERS = 2.0
CREATION_DATE  = 
ORIGINATOR     = 

OBJECT_NAME    = COSMOS 1812
OBJECT_ID      = 1987-003A
CENTER_NAME    = EARTH
REF_FRAME      = TEME
TIME_SYSTEM    = UTC
MEAN_ELEMENT_THEORY = SGP/SGP4

EPOCH          = 2026-01-15T02:48:53.278848
MEAN_MOTION    = 15.84097988
ECCENTRICITY   = .0002819
INCLINATION    = 82.4839
RA_OF_ASC_NODE = 255.6687
ARG_OF_PERICENTER = 49.8438
MEAN_ANOMALY   = 310.3078

EPHEMERIS_TYPE = 0
CLASSIFICATION_TYPE = U
NORAD_CAT_ID   = 17295
ELEMENT_SET_NO = 999
REV_AT_EPOCH   = 13592
BSTAR          = .45449E-3
MEAN_MOTION_DOT = .102594E-2
MEAN_MOTION_DDOT = 0

CCSDS_OMM_VERS = 2.0
CREATION_DATE  = 
ORIGINATOR     = 

OBJECT_NAME    = SL-14 R/B
OBJECT_ID      = 1987-024B
CENTER_NAME    = EARTH
REF_FRAME      = TEME
TIME_SYSTEM    = UTC
MEAN_ELEMENT_THEORY = SGP/SGP4

EPOCH          = 2026-01-14T20:10:37.089120
MEAN_MOTION    = 14.86067420
ECCENTRICITY   = .0019717
INCLINATION    = 82.5300
RA_OF_ASC_NODE = 143.3609
ARG_OF_PERICENTER = 80.1167
MEAN_ANOMALY   = 280.2274

EPHEMERIS_TYPE = 0
CLASSIFICATION_TYPE = U
NORAD_CAT_ID   = 17567
ELEMENT_SET_NO = 999
REV_AT_EPOCH   = 8013
BSTAR          = .38333E-4
MEAN_MOTION_DOT = .361E-5
MEAN_MOTION_DDOT = 0

CCSDS_OMM_VERS = 2.0
CREATION_DATE  = 
ORIGINATOR     = 

OBJECT_NAME    = COSMOS 1833
OBJECT_ID      = 1987-027A
CENTER_NAME    = EARTH
REF_FRAME      = TEME
TIME_SYSTEM    = UTC
MEAN_ELEMENT_THEORY = SGP/SGP4

EPOCH          = 2026-01-15T03:08:35.437344
MEAN_MOTION    = 14.13044007
ECCENTRICITY   = .0024117
INCLINATION    = 70.9191
RA_OF_ASC_NODE = 78.5882
ARG_OF_PERICENTER = 285.6914
MEAN_ANOMALY   = 74.1547

EPHEMERIS_TYPE = 0
CLASSIFICATION_TYPE = U
NORAD_CAT_ID   = 17589
ELEMENT_SET_NO = 999
REV_AT_EPOCH   = 275
BSTAR          = .1844E-3
MEAN_MOTION_DOT = .297E-5
MEAN_MOTION_DDOT = 0

CCSDS_OMM_VERS = 2.0
CREATION_DATE  = 
ORIGINATOR     = 

OBJECT_NAME    = SL-16 R/B
OBJECT_ID      = 1987-027B
CENTER_NAME    = EARTH
REF_FRAME      = TEME
TIME_SYSTEM    = UTC
MEAN_ELEMENT_THEORY = SGP/SGP4

EPOCH          = 2026-01-15T02:50:43.461312
MEAN_MOTION    = 14.17160396
ECCENTRICITY   = .0006464
INCLINATION    = 71.0033
RA_OF_ASC_NODE = 29.3809
ARG_OF_PERICENTER = 224.1209
MEAN_ANOMALY   = 135.9400

EPHEMERIS_TYPE = 0
CLASSIFICATION_TYPE = U
NORAD_CAT_ID   = 17590
ELEMENT_SET_NO = 999
REV_AT_EPOCH   = 775
BSTAR          = -.11366E-4
MEAN_MOTION_DOT = -.71E-6
MEAN_MOTION_DDOT = 0

CCSDS_OMM_VERS = 2.0
CREATION_DATE  = 
ORIGINATOR     = 

OBJECT_NAME    = SL-14 R/B
OBJECT_ID      = 1987-038B
CENTER_NAME    = EARTH
REF_FRAME      = TEME
TIME_SYSTEM    = UTC
MEAN_ELEMENT_THEORY = SGP/SGP4

EPOCH          = 2026-01-14T22:37:25.944096
MEAN_MOTION    = 14.85300507
ECCENTRICITY   = .0018925
INCLINATION    = 82.5024
RA_OF_ASC_NODE = 347.4243
ARG_OF_PERICENTER = 347.2208
MEAN_ANOMALY   = 12.8525

EPHEMERIS_TYPE = 0
CLASSIFICATION_TYPE = U
NORAD_CAT_ID   = 17912
ELEMENT_SET_NO = 999
REV_AT_EPOCH   = 7125
BSTAR          = .40445E-4
MEAN_MOTION_DOT = .372E-5
MEAN_MOTION_DDOT = 0

CCSDS_OMM_VERS = 2.0
CREATION_DATE  = 
ORIGINATOR     = 

OBJECT_NAME    = COSMOS 1844
OBJECT_ID      = 1987-041A
CENTER_NAME    = EARTH
REF_FRAME      = TEME
TIME_SYSTEM    = UTC
MEAN_ELEMENT_THEORY = SGP/SGP4

EPOCH          = 2026-01-14T19:09:34.866144
MEAN_MOTION    = 14.14537953
ECCENTRICITY   = .0028289
INCLINATION    = 70.8997
RA_OF_ASC_NODE = 147.8464
ARG_OF_PERICENTER = 104.4367
MEAN_ANOMALY   = 255.9897

EPHEMERIS_TYPE = 0
CLASSIFICATION_TYPE = U
NORAD_CAT_ID   = 17973
ELEMENT_SET_NO = 999
REV_AT_EPOCH   = 99596
BSTAR          = -.10426E-3
MEAN_MOTION_DOT = -.249E-5
MEAN_MOTION_DDOT = 0

CCSDS_OMM_VERS = 2.0
CREATION_DATE  = 
ORIGINATOR     = 

OBJECT_NAME    = SL-14 R/B
OBJECT_ID      = 1987-055B
CENTER_NAME    = EARTH
REF_FRAME      = TEME
TIME_SYSTEM    = UTC
MEAN_ELEMENT_THEORY = SGP/SGP4

EPOCH          = 2026-01-15T03:08:27.714048
MEAN_MOTION    = 14.85558430
ECCENTRICITY   = .0020451
INCLINATION    = 82.4977
RA_OF_ASC_NODE = 39.5130
ARG_OF_PERICENTER = 186.3896
MEAN_ANOMALY   = 173.7063

EPHEMERIS_TYPE = 0
CLASSIFICATION_TYPE = U
NORAD_CAT_ID   = 18153
ELEMENT_SET_NO = 999
REV_AT_EPOCH   = 6198
BSTAR          = .31959E-4
MEAN_MOTION_DOT = .301E-5
MEAN_MOTION_DDOT = 0

CCSDS_OMM_VERS = 2.0
CREATION_DATE  = 
ORIGINATOR     = 

OBJECT_NAME    = COSMOS 1867
OBJECT_ID      = 1987-060A
CENTER_NAME    = EARTH
REF_FRAME      = TEME
TIME_SYSTEM    = UTC
MEAN_ELEMENT_THEORY = SGP/SGP4

EPOCH          = 2026-01-15T04:57:29.500416
MEAN_MOTION    = 14.31492627
ECCENTRICITY   = .001385
INCLINATION    = 65.0111
RA_OF_ASC_NODE = 96.4831
ARG_OF_PERICENTER = 274.3679
MEAN_ANOMALY   = 85.5823

EPHEMERIS_TYPE = 0
CLASSIFICATION_TYPE = U
NORAD_CAT_ID   = 18187
ELEMENT_SET_NO = 999
REV_AT_EPOCH   = 1228
BSTAR          = .15352E-4
MEAN_MOTION_DOT = -.59E-6
MEAN_MOTION_DDOT = 0

CCSDS_OMM_VERS = 2.0
CREATION_DATE  = 
ORIGINATOR     = 

OBJECT_NAME    = SL-14 R/B
OBJECT_ID      = 1988-001B
CENTER_NAME    = EARTH
REF_FRAME      = TEME
TIME_SYSTEM    = UTC
MEAN_ELEMENT_THEORY = SGP/SGP4

EPOCH          = 2026-01-15T02:56:36.933216
MEAN_MOTION    = 14.85461311
ECCENTRICITY   = .0019399
INCLINATION    = 82.5114
RA_OF_ASC_NODE = 245.7495
ARG_OF_PERICENTER = 58.0309
MEAN_ANOMALY   = 302.2789

EPHEMERIS_TYPE = 0
CLASSIFICATION_TYPE = U
NORAD_CAT_ID   = 18749
ELEMENT_SET_NO = 999
REV_AT_EPOCH   = 3407
BSTAR          = .30856E-4
MEAN_MOTION_DOT = .291E-5
MEAN_MOTION_DDOT = 0

